     2.100          NAVIGATION                              RINEX VERSION / TYPE
fic2rin                                 04/10/2010 00:19:11 PGM / RUN BY / DATE
                                                            END OF HEADER
12 10  4  9 22  0  0.0 -.128564424813D-03  .443378667114D-11  .000000000000D+00
     .980000000000D+02 -.331875000000D+02  .455626121514D-08  .241529264723D+01
    -.174343585968D-05  .352893688250D-02  .408291816711D-05  .515371523476D+04
     .511200000000D+06  .223517417908D-07 -.184135939606D+01  .521540641785D-07
     .969949922399D+00  .304500000000D+03 -.501594857508D+00 -.820069873488D-08
    -.173935816553D-09  .100000000000D+01  .157800000000D+04  .000000000000D+00
     .240000000000D+01  .000000000000D+00 -.121071934700D-07  .980000000000D+02
     .504006000000D+06  .400000000000D+01
13 10  4  9 22  0  0.0  .305457040668D-03 -.341060513165D-12  .000000000000D+00
     .630000000000D+02  .718750000000D+00  .376587114936D-08 -.139010084179D+01
     .115483999252D-06  .435650360305D-02  .109281390905D-04  .515356633759D+04
     .511200000000D+06 -.465661287308D-07  .240648191296D+01  .745058059692D-07
     .993180565569D+00  .189375000000D+03  .165906146277D+01 -.763067499110D-08
    -.180721813503D-09  .100000000000D+01  .157800000000D+04  .000000000000D+00
     .240000000000D+01  .000000000000D+00 -.111758708954D-07  .630000000000D+02
     .504006000000D+06  .400000000000D+01
14 10  4  9 22  0  0.0  .319587998092D-04  .466116034659D-11  .000000000000D+00
     .410000000000D+02 -.115937500000D+02  .388194741298D-08 -.157830840528D+01
    -.543892383575D-06  .495852087624D-02  .101439654827D-04  .515373048019D+04
     .511200000000D+06  .987201929092D-07  .238498868104D+01  .465661287308D-07
     .986457811847D+00  .198343750000D+03 -.211646175529D+01 -.762638909829D-08
    -.185364864048D-09  .100000000000D+01  .157800000000D+04  .000000000000D+00
     .240000000000D+01  .000000000000D+00 -.884756445885D-08  .410000000000D+02
     .504006000000D+06  .400000000000D+01
15 10  4  9 22  0  0.0 -.288609880954D-03  .466116034659D-11  .000000000000D+00
     .310000000000D+02 -.251562500000D+02  .467162316328D-08 -.165143317008D+01
    -.143423676491D-05  .246426882222D-02  .982917845249D-05  .515374638367D+04
     .511200000000D+06 -.111758708954D-07  .232245833971D+01 -.558793544769D-07
     .954063094340D+00  .187500000000D+03 -.195482498562D+00 -.809890878063D-08
    -.202508435289D-09  .100000000000D+01  .157800000000D+04  .000000000000D+00
     .240000000000D+01  .000000000000D+00 -.977888703346D-08  .310000000000D+02
     .504006000000D+06  .400000000000D+01
16 10  4  9 22  0  0.0 -.598919577897D-04 -.386535248253D-11  .000000000000D+00
     .590000000000D+02 -.416562500000D+02  .454304637897D-08  .939543658736D-01
    -.233016908169D-05  .585523922928D-02  .469200313091D-05  .515373779869D+04
     .511200000000D+06  .614672899246D-07 -.182398876822D+01 -.260770320892D-07
     .971193799217D+00  .293875000000D+03 -.254807283552D+00 -.829105964163D-08
    -.238224208709D-09  .100000000000D+01  .157800000000D+04  .000000000000D+00
     .240000000000D+01  .000000000000D+00 -.977888703346D-08  .590000000000D+02
     .504006000000D+06  .400000000000D+01
17 10  4  9 22  0  0.0  .143141020089D-03  .261479726760D-11  .000000000000D+00
     .530000000000D+02 -.526875000000D+02  .432660879205D-08 -.114881257732D+01
    -.274926424026D-05  .534623081330D-02  .106096267700D-04  .515359164429D+04
     .511200000000D+06  .204890966415D-06 -.780575321867D+00 -.298023223877D-07
     .960172676189D+00  .175718750000D+03 -.252957445438D+01 -.791711549392D-08
    -.166792661870D-09  .100000000000D+01  .157800000000D+04  .000000000000D+00
     .240000000000D+01  .000000000000D+00 -.102445483208D-07  .530000000000D+02
     .504006000000D+06  .400000000000D+01
18 10  4  9 22  0  0.0  .608288682997D-04  .250111042988D-11  .000000000000D+00
     .400000000000D+02 -.725000000000D+01  .546737059507D-08  .336299976335D+00
    -.400468707085D-06  .111347537022D-01  .461190938950D-05  .515367871857D+04
     .511200000000D+06 -.707805156708D-07  .131470214786D+01  .135973095894D-06
     .937723697945D+00  .280000000000D+03 -.234670001142D+01 -.879715215098D-08
    -.157506560780D-09  .100000000000D+01  .157800000000D+04  .000000000000D+00
     .240000000000D+01  .000000000000D+00 -.107102096081D-07  .400000000000D+02
     .504006000000D+06  .400000000000D+01
19 10  4  9 22  0  0.0 -.270055606961D-04 -.250111042988D-11  .000000000000D+00
     .640000000000D+02 -.337187500000D+02  .426589197724D-08 -.174843689945D+01
    -.181980431080D-05  .634215853643D-02  .113695859909D-04  .515372641754D+04
     .511200000000D+06 -.968575477600D-07 -.725416615965D+00  .745058059692D-08
     .957853054264D+00  .160593750000D+03 -.174512252542D+00 -.787604235449D-08
     .121433629627D-10  .100000000000D+01  .157800000000D+04  .000000000000D+00
     .240000000000D+01  .000000000000D+00 -.149011611938D-07  .640000000000D+02
     .504006000000D+06  .400000000000D+01
20 10  4  9 22  0  0.0  .580167397857D-04 -.682121026330D-12  .000000000000D+00
     .610000000000D+02 -.453125000000D+01  .545022702383D-08  .482133631967D+00
    -.450760126114D-06  .434432330076D-02  .467337667942D-05  .515363109207D+04
     .511200000000D+06 -.130385160446D-07  .126074427533D+01  .428408384323D-07
     .937598840812D+00  .275968750000D+03  .130998674303D+01 -.870571977103D-08
    -.116433421348D-09  .100000000000D+01  .157800000000D+04  .000000000000D+00
     .240000000000D+01  .000000000000D+00 -.791624188423D-08  .610000000000D+02
     .504006000000D+06  .400000000000D+01
22 10  4  9 22  0  0.0  .174915883690D-03 -.795807864051D-12  .000000000000D+00
     .130000000000D+02 -.993750000000D+01  .547772816937D-08 -.629328089607D+00
    -.471249222755D-06  .514459086116D-02  .456348061562D-05  .515365408707D+04
     .511200000000D+06 -.106170773506D-06  .131971641953D+01  .540167093277D-07
     .935402123024D+00  .279500000000D+03 -.192211815162D+01 -.871429155665D-08
    -.122862260563D-09  .100000000000D+01  .157800000000D+04  .000000000000D+00
     .240000000000D+01  .000000000000D+00 -.176951289177D-07  .130000000000D+02
     .504006000000D+06  .400000000000D+01
23 10  4  9 22  0  0.0  .374764669687D-03 -.125055521494D-11  .000000000000D+00
     .730000000000D+02 -.265625000000D+01  .427946397114D-08 -.229008130450D+01
    -.208616256714D-06  .649158190936D-02  .107139348984D-04  .515370857811D+04
     .511200000000D+06 -.115483999252D-06  .234689724203D+01 -.912696123123D-07
     .968272376682D+00  .180812500000D+03  .300447847394D+01 -.786068457192D-08
    -.201079804352D-09  .100000000000D+01  .157800000000D+04  .000000000000D+00
     .240000000000D+01  .000000000000D+00 -.200234353542D-07  .730000000000D+02
     .504006000000D+06  .400000000000D+01
24 10  4  9 22  0  0.0  .277766026556D-03  .318323145621D-11  .000000000000D+00
     .186000000000D+03  .553437500000D+02  .481948646524D-08 -.679435368639D+00
     .282749533653D-05  .573056726716D-02  .786408782005D-05  .515488767815D+04
     .511200000000D+06 -.465661287308D-07  .295202919472D+00 -.931322574615D-07
     .949783972646D+00  .221812500000D+03 -.477877546844D+00 -.825605818368D-08
     .415731602604D-09  .100000000000D+01  .157800000000D+04  .000000000000D+00
     .340000000000D+01  .000000000000D+00 -.139698386192D-08  .186000000000D+03
     .504006000000D+06  .400000000000D+01
26 10  4  9 22  0  0.0 -.374857336283D-04 -.454747350886D-11  .000000000000D+00
     .510000000000D+02 -.228125000000D+02  .374051295024D-08  .252991747941D+01
    -.134482979774D-05  .194190767361D-01  .103823840618D-04  .515234900284D+04
     .511200000000D+06  .614672899246D-07  .240326022063D+01 -.277534127235D-06
     .990925219876D+00  .192906250000D+03  .107680500502D+01 -.732816239024D-08
    -.230366738556D-09  .100000000000D+01  .157800000000D+04  .000000000000D+00
     .240000000000D+01  .000000000000D+00 -.605359673500D-08  .510000000000D+02
     .504006000000D+06  .400000000000D+01
27 10  4  9 22  0  0.0  .141651835293D-03  .329691829393D-11  .000000000000D+00
     .129000000000D+03  .652187500000D+02  .412802909184D-08 -.154481725701D+01
     .378675758839D-05  .215743733570D-01  .823847949505D-05  .515364703941D+04
     .511200000000D+06 -.150874257088D-06 -.295120885756D+01  .560656189919D-06
     .978195973217D+00  .233312500000D+03 -.143601211629D+01 -.790997233924D-08
     .256796410887D-09  .100000000000D+01  .157800000000D+04  .000000000000D+00
     .340000000000D+01  .000000000000D+00 -.419095158577D-08  .129000000000D+03
     .504006000000D+06  .400000000000D+01
28 10  4  9 22  0  0.0 -.188364647329D-04  .795807864051D-12  .000000000000D+00
     .960000000000D+02 -.402500000000D+02  .473341145130D-08 -.484867386981D+00
    -.198744237423D-05  .159382376587D-01  .455416738987D-05  .515366307831D+04
     .511200000000D+06 -.763684511185D-07 -.181620118277D+01  .199303030968D-06
     .969425492600D+00  .297593750000D+03 -.196037057890D+01 -.860857286733D-08
    -.186793494985D-09  .100000000000D+01  .157800000000D+04  .000000000000D+00
     .340000000000D+01  .000000000000D+00 -.107102096081D-07  .960000000000D+02
     .504006000000D+06  .400000000000D+01
29 10  4  9 22  0  0.0  .111388042569D-03  .295585778076D-11  .000000000000D+00
     .640000000000D+02 -.447812500000D+02  .432803742299D-08  .165051038622D+01
    -.238791108131D-05  .303459109273D-02  .100973993540D-04  .515376901436D+04
     .511200000000D+06  .838190317154D-07 -.772332973694D+00 -.465661287308D-07
     .960496725710D+00  .184843750000D+03 -.131045946453D+01 -.791032949697D-08
    -.140005831805D-09  .100000000000D+01  .157800000000D+04  .000000000000D+00
     .240000000000D+01  .000000000000D+00 -.884756445885D-08  .640000000000D+02
     .504006000000D+06  .400000000000D+01
